{
    "links": {
        "self": "http://www.neowsapp.com/rest/v1/neo/3791246?api_key=iIulBulltgU6a56xZRHN4H3l9WmuAYTsLGpBGhQ2"
    },
    "id": "3791246",
    "neo_reference_id": "3791246",
    "name": "(2017 XG1)",
    "designation": "2017 XG1",
    "nasa_jpl_url": "http://ssd.jpl.nasa.gov/sbdb.cgi?sstr=3791246",
    "absolute_magnitude_h": 24.8,
    "estimated_diameter": {
        "kilometers": {
            "estimated_diameter_min": 0.0291443905,
            "estimated_diameter_max": 0.0651688382
        },
        "meters": {
            "estimated_diameter_min": 29.1443904535,
            "estimated_diameter_max": 65.1688382168
        },
        "miles": {
            "estimated_diameter_min": 0.018109479,
            "estimated_diameter_max": 0.0404940262
        },
        "feet": {
            "estimated_diameter_min": 95.6180819754,
            "estimated_diameter_max": 213.8085311752
        }
    },
    "is_potentially_hazardous_asteroid": false,
    "close_approach_data": [
        {
            "close_approach_date": "1947-04-20",
            "close_approach_date_full": "1947-Apr-20 06:33",
            "epoch_date_close_approach": -716405220000,
            "relative_velocity": {
                "kilometers_per_second": "20.2309383221",
                "kilometers_per_hour": "72831.3779596327",
                "miles_per_hour": "45254.5859327507"
            },
            "miss_distance": {
                "astronomical": "0.336086402",
                "lunar": "130.737610378",
                "kilometers": "50277809.87516374",
                "miles": "31241182.383550012"
            },
            "orbiting_body": "Earth"
        },
        {
            "close_approach_date": "2012-11-29",
            "close_approach_date_full": "2012-Nov-29 01:41",
            "epoch_date_close_approach": 1354153260000,
            "relative_velocity": {
                "kilometers_per_second": "21.7494029039",
                "kilometers_per_hour": "78297.8504541257",
                "miles_per_hour": "48651.2393557871"
            },
            "miss_distance": {
                "astronomical": "0.3706798532",
                "lunar": "144.1944628948",
                "kilometers": "55452916.490632684",
                "miles": "34456844.5221676792"
            },
            "orbiting_body": "Earth"
        },
        {
            "close_approach_date": "2017-12-29",
            "close_approach_date_full": "2017-Dec-29 20:21",
            "epoch_date_close_approach": 1514578860000,
            "relative_velocity": {
                "kilometers_per_second": "9.8817124424",
                "kilometers_per_hour": "35574.1647925765",
                "miles_per_hour": "22104.4025623651"
            },
            "miss_distance": {
                "astronomical": "0.0418402582",
                "lunar": "16.2758604398",
                "kilometers": "6259213.506970034",
                "miles": "3889294.9242291092"
            },
            "orbiting_body": "Earth"
        }
    ],
    "orbital_data": {
        "orbit_id": "5",
        "orbit_determination_date": "2017-12-21 06:28:27",
        "first_observation_date": "2017-12-08",
        "last_observation_date": "2017-12-20",
        "data_arc_in_days": 12,
        "observations_used": 32,
        "orbit_uncertainty": "7",
        "minimum_orbit_intersection": ".0321024",
        "jupiter_tisserand_invariant": "3.819",
        "epoch_osculation": "2459000.5",
        "eccentricity": ".518488213187312",
        "semi_major_axis": "1.858146844139785",
        "inclination": "4.904053395500704",
        "ascending_node_longitude": "252.2858431185748",
        "orbital_period": "925.163467120389",
        "perihelion_distance": ".8947196070821054",
        "perihelion_argument": "246.0253186860508",
        "aphelion_distance": "2.821574081197465",
        "perihelion_time": "2459073.218133013634",
        "mean_anomaly": "331.7038892960289",
        "mean_motion": ".3891204233566588",
        "equinox": "J2000",
        "orbit_class": {
            "orbit_class_type": "APO",
            "orbit_class_description": "Near-Earth asteroid orbits which cross the Earth’s orbit similar to that of 1862 Apollo",
            "orbit_class_range": "a (semi-major axis) > 1.0 AU; q (perihelion) < 1.017 AU"
        }
    },
    "is_sentry_object": false
}